<!-- $Id$ -->
<!DOCTYPE HTML PUBLIC "-//W3C//DTD HTML 4.01 Transitional//EN">
<html>

<head>
  <title>Display metars</title>
  <meta http-equiv="Content-Type" content="text/html; charset=utf-8">
  <meta name="Author" content="G. Ballester">
  <meta name="GENERATOR" content="Quanta Plus">
  <meta name="robots" content="index,nofollow">
  <meta name="keywords" content="metar, speci, taf, weather reports">
  <meta name=viewport content="width=device-width, initial-scale=1">
  <link rel="stylesheet" href="/ogimet.css">
  <link rel="stylesheet" type="text/css" href="//cdnjs.cloudflare.com/ajax/libs/cookieconsent2/3.0.3/cookieconsent.min.css" />
<script src="//cdnjs.cloudflare.com/ajax/libs/cookieconsent2/3.0.3/cookieconsent.min.js"></script>
<script>
window.addEventListener("load", function(){
window.cookieconsent.initialise({
  "palette": {
    "popup": {
      "background": "#eb6c44",
      "text": "#ffffff"
    },
    "button": {
      "background": "#f5d948"
    }
  },
  "theme": "classic",
  "position": "top",
  "content": {
    "message": "Las cookies de este sitio web se usan para personalizar el contenido y los anuncios, ofrecer funciones de redes sociales y analizar el tráfico. Ademas, compartimos el uso que haga del sitio web con nuestros partners de redes sociales, publicidad y análisis web, quienes pueden combinarla con otra información que les haya proporcionado o que hayan recopilado a partir del uso que haya hecho de sus servicios. Si continua navegando en estas páginas consideramos que acepta su uso. ",
    "dismiss": "Entendido",
    "link": "Saber más",
    "href": "/cookiespolicy.phtml"
  }
})});
</script>
</head>

<body>
  <pre>
##########################################################
# Query made at 01/17/2025 16:10:43 UTC
# Time interval: from 01/08/2025 16:00  to 01/17/2025 16:59  UTC
##########################################################

##########################################################
# EBBR, Bruxelles National (Belgium)
# WMO index: 06451. WIGOS ID: 0-20000-0-06451
# Latitude 50-53-47N. Longitude 004-31-37E. Altitude 56 m.
##########################################################

###################################
#  METAR/SPECI from EBBR
###################################
202501171550 METAR EBBR 171550Z VRB02KT 0500 R25L/0700N R25R/1100D R01/0900D FZFG OVC001 M00/M00 Q1036 NOSIG=
202501171520 METAR EBBR 171520Z VRB02KT 0500 R25L/0800N R25R/1500D R01/1100D FG OVC001 00/00 Q1036 NOSIG=
202501171450 METAR EBBR 171450Z VRB02KT 0550 R25L/0900N R25R/1700U R01/1000N FG OVC001 00/00 Q1036 NOSIG=
202501171420 METAR EBBR 171420Z VRB02KT 0450 R25L/1000D R25R/1500N R01/1900N FG OVC002 00/00 Q1036 NOSIG=
202501171350 METAR EBBR 171350Z VRB01KT 0600 R25L/1800D R25R/1900N R01/1900U FG OVC002 01/01 Q1036 NOSIG=
202501171320 METAR EBBR 171320Z VRB01KT 0450 R25L/1500N R25R/1700D R01/0800U FG OVC002 01/01 Q1036 NOSIG=
202501171250 METAR EBBR 171250Z VRB02KT 0350 R25L/0550N R25R/1500D R01/1200U FG OVC002 01/01 Q1036 NOSIG=
202501171220 METAR EBBR 171220Z 00000KT 0350 R25L/0650N R25R/1400N R01/0600U FG OVC001 01/01 Q1037 NOSIG=
202501171150 METAR EBBR 171150Z VRB02KT 0350 R25L/0500N R25R/1400D R01/0550N FG OVC001 00/00 Q1037 NOSIG=
202501171120 METAR EBBR 171120Z VRB02KT 0350 R25L/0500N R25R/0800N R01/0550N FG OVC001 00/00 Q1038 NOSIG=
202501171050 METAR COR EBBR 171050Z VRB01KT 0350 R25L/0600N R25R/0800N R01/0500N FG OVC001 00/00 Q1038 NOSIG=
202501171020 METAR EBBR 171020Z VRB01KT 0200 R25L/0450N R25R/0800U R01/0400N FG OVC001 00/00 Q1038 NOSIG=
202501170950 METAR EBBR 170950Z 13003KT 090V150 0200 R25L/0350N R25R/0550U R01/0400N FG OVC001 00/00 Q1038 NOSIG=
202501170920 METAR COR EBBR 170920Z 12003KT 090V150 0200 R25L/0375N R25R/0650D R01/0400N FG OVC001 00/00 Q1038 NOSIG=
202501170850 METAR EBBR 170850Z 13002KT 0300 R25L/0375N R25R/0600N R01/0450N FG OVC001 00/00 Q1038 NOSIG=
202501170820 METAR EBBR 170820Z 10002KT 0350 R25L/0400N R25R/0600N R01/0750D FG OVC001 00/00 Q1037 TEMPO OVC002=
202501170750 METAR EBBR 170750Z 09002KT 0350 R25L/0500D R25R/0800U R01/0750N FG OVC001 00/00 Q1037 TEMPO OVC002=
202501170720 METAR EBBR 170720Z VRB01KT 0350 R25L/0800N R25R/1000U R01/1000N FG OVC001 01/01 Q1037 TEMPO OVC002=
202501170650 METAR EBBR 170650Z VRB01KT 0400 R25L/1100U R25R/0700N R01/1000U FG OVC001 01/01 Q1037 TEMPO 0300 FG OVC002=
202501170620 METAR EBBR 170620Z 21002KT 0300 R25L/0750D R25R/0800U R01/1300N FG OVC001 01/01 Q1037 TEMPO 0400 FG OVC002=
202501170550 METAR EBBR 170550Z VRB01KT 0200 R25L/0550N R25R/0800D R01/0900U FG OVC001 00/00 Q1037 NOSIG=
202501170520 METAR EBBR 170520Z VRB02KT 0200 R25L/0550N R25R/0750N R01/0650N FG OVC001 01/01 Q1037 NOSIG=
202501170450 METAR EBBR 170450Z VRB02KT 0200 R25L/0550N R25R/0800N R01/0650N FG OVC001 01/01 Q1036 NOSIG=
202501170420 METAR EBBR 170420Z VRB01KT 0200 R25L/0600N R25R/0750N R01/0600N FG OVC001 00/00 Q1036 NOSIG=
202501170350 METAR COR EBBR 170350Z VRB01KT 0300 R25L/0750N R25R/1200U R01/1200U FG OVC001 00/00 Q1036 NOSIG=
202501170320 METAR EBBR 170320Z 13003KT 0300 R25L/0750N R25R/0900N R01/0900N FG OVC001 00/00 Q1036 BECMG FZFG=
202501170250 METAR EBBR 170250Z 12001KT 0300 R25L/0750N R25R/0900U R01/0800N FG OVC001 00/00 Q1036 BECMG FZFG=
202501170220 METAR COR EBBR 170220Z VRB01KT 0300 R25L/0700N R25R/1100N R01/0800N FG OVC001 00/00 Q1036 BECMG FZFG=
202501170150 METAR COR EBBR 170150Z 16002KT 0300 R25L/0750D R25R/0900N R01/0750N FG OVC001 00/00 Q1036 TEMPO FZFG=
202501170120 METAR EBBR 170120Z VRB02KT 0300 R25L/0800N R25R/1000D R01/0650N FG OVC001 01/01 Q1037 NOSIG=
202501170050 METAR EBBR 170050Z VRB02KT 0300 R25L/1100N R25R/1400N R01/0900D FG OVC001 01/01 Q1037 NOSIG=
202501170020 METAR EBBR 170020Z VRB01KT 0300 R25L/0900U R25R/0800N R01/0750U FG OVC001 01/01 Q1037 NOSIG=
202501162350 METAR EBBR 162350Z 18003KT 0400 R25L/1300D R25R/P2000N R01/1100D FG SCT001 OVC002 02/02 Q1037 BECMG 0300 FG OVC001=
202501162320 METAR COR EBBR 162320Z 17003KT 1200 R25L/P2000N R25R/P2000N R01/1900D BR BCFG SCT002 OVC003 02/02 Q1037 BECMG 0300 FG OVC001=
202501162250 METAR EBBR 162250Z VRB02KT 1500 BR SCT002 OVC003 02/02 Q1037 BECMG 0300 FG=
202501162220 METAR EBBR 162220Z VRB01KT 2200 BR SCT002 OVC003 02/02 Q1037 BECMG 1200 BR=
202501162150 METAR COR EBBR 162150Z VRB02KT 3800 BR FEW002 OVC004 02/02 Q1037 BECMG 1200 BR=
202501162120 METAR EBBR 162120Z VRB02KT 3800 BR FEW003 OVC004 02/02 Q1037 BECMG 2500 BR=
202501162050 METAR COR EBBR 162050Z 00000KT 3800 BR FEW003 OVC004 02/02 Q1037 BECMG 2500 BR=
202501162020 METAR COR EBBR 162020Z 14002KT 4000 BR FEW003 OVC005 02/02 Q1037 BECMG 2500 BR OVC004=
202501161950 METAR EBBR 161950Z VRB02KT 5000 BR FEW003 OVC005 02/02 Q1037 BECMG 3000 BR OVC004=
202501161920 METAR EBBR 161920Z 17005KT 5000 BR FEW003 OVC005 02/02 Q1037 BECMG 3000 BR OVC004=
202501161850 METAR COR EBBR 161850Z 16004KT 130V190 7000 FEW003 OVC005 02/02 Q1037 BECMG 4000 BR OVC004=
202501161820 METAR EBBR 161820Z 17005KT 130V190 7000 FEW004 OVC006 02/02 Q1036 NOSIG=
202501161750 METAR EBBR 161750Z 14005KT 8000 OVC006 02/02 Q1036 NOSIG=
202501161720 METAR EBBR 161720Z 12004KT 7000 OVC005 02/02 Q1036 NOSIG=
202501161650 METAR EBBR 161650Z 11003KT 6000 OVC003 02/02 Q1036 BECMG BKN005=
202501161620 METAR EBBR 161620Z 12004KT 5000 BR OVC003 02/02 Q1036 BECMG BKN005=
202501161550 METAR EBBR 161550Z 13003KT 3200 BR OVC003 02/02 Q1036 BECMG 5000 BR BKN005=
202501161520 METAR COR EBBR 161520Z 13005KT 3200 BR OVC002 02/02 Q1035 BECMG 5000 BR BKN005=
202501161450 METAR EBBR 161450Z 15007KT 2800 BR OVC002 02/02 Q1035 BECMG 3500 BR=
202501161420 METAR EBBR 161420Z 14004KT 080V160 2000 BR OVC002 03/03 Q1035 BECMG 3500 BR=
202501161350 METAR EBBR 161350Z 12004KT 080V160 1500 R25L/1400U R25R/1900N R01/1600U BR OVC002 03/03 Q1035 TEMPO 1000 BR=
202501161320 METAR COR EBBR 161320Z 14006KT 1000 R25L/0800N R25R/1400D R01/1000D BR OVC002 02/02 Q1035 TEMPO 3000 BR=
202501161250 METAR EBBR 161250Z 13004KT 1200 R25L/0900N R25R/1700U R01/1000D BR OVC002 02/02 Q1035 NOSIG=
202501161220 METAR EBBR 161220Z 14004KT 100V160 0800 R25L/1000U R25R/1900N R01/1000D FG OVC002 02/02 Q1036 NOSIG=
202501161150 METAR EBBR 161150Z 12004KT 090V160 0800 R25L/0750U R25R/1400N R01/0900U FG OVC002 02/02 Q1036 TEMPO 2000 BR=
202501161120 METAR EBBR 161120Z VRB02KT 1000 R25L/1000N R25R/1600N R01/1600U BR OVC002 02/02 Q1036 TEMPO 2000 BR=
202501161050 METAR EBBR 161050Z 16004KT 1000 R25L/1200D R25R/1900D R01/1300U BR OVC002 02/02 Q1036 TEMPO 2000 BR=
202501161020 METAR EBBR 161020Z 14006KT 0800 R25L/0900U R25R/1500N R01/1200D FG OVC002 02/02 Q1037 TEMPO 2000 BR=
202501160950 METAR EBBR 160950Z 15004KT 100V170 0800 R25L/0800N R25R/1500D R01/0900N FG OVC002 02/02 Q1037 TEMPO 2000 BR=
202501160920 METAR EBBR 160920Z 12005KT 090V150 0800 R25L/1100N R25R/P2000N R01/1200N FG OVC002 02/02 Q1037 TEMPO 2000 BR=
202501160850 METAR COR EBBR 160850Z 11005KT 2500 BR BKN003 02/02 Q1036 TEMPO 0800 FG=
202501160820 METAR COR EBBR 160820Z 09005KT 070V130 2200 BR OVC002 02/02 Q1036 BECMG 9999 NSW FEW008=
202501160750 METAR EBBR 160750Z VRB02KT 0600 R25L/1200N R25R/1900D R01/1300N FG OVC002 03/03 Q1036 BECMG 3000 BR BKN006=
202501160720 METAR COR EBBR 160720Z VRB01KT 1800 BR OVC003 03/03 Q1036 TEMPO 0600 FG=
202501160650 METAR COR EBBR 160650Z 11002KT 4000 BR BKN004 BKN020 03/03 Q1036 TEMPO 0800 FG=
202501160620 METAR EBBR 160620Z 12002KT 4200 BR BKN005 BKN020 03/03 Q1036 BECMG 5000 BR=
202501160550 METAR EBBR 160550Z 13003KT 3800 BR BKN003 BKN020 03/03 Q1035 BECMG 5000 BR BKN005=
202501160520 METAR EBBR 160520Z 12001KT 4000 BR BKN003 BKN020 03/03 Q1035 BECMG 5000 BR BKN005=
202501160450 METAR EBBR 160450Z 12003KT 3800 BR BKN004 BKN018 03/03 Q1035 BECMG 5000 BR BKN005=
202501160420 METAR COR EBBR 160420Z 12003KT 2300 BR BKN003 03/03 Q1035 BECMG 5000 BR BKN005=
202501160350 METAR COR EBBR 160350Z 10004KT 0900 R25L/1800U R25R/1900N R01/1300U FG OVC002 03/03 Q1035 BECMG 1500 BR BKN005=
202501160320 METAR COR EBBR 160320Z 10003KT 0300 R25L/1000N R25R/0800N R01/0900D FG OVC001 04/04 Q1035 TEMPO 0800 FG OVC002=
202501160250 METAR EBBR 160250Z 10003KT 0250 R25L/0800D R25R/1300D R01/0700N FG OVC001 04/04 Q1035 NOSIG=
202501160220 METAR EBBR 160220Z 09001KT 0250 R25L/1500D R25R/1400D R01/0800N FG OVC001 04/04 Q1035 NOSIG=
202501160150 METAR EBBR 160150Z 13002KT 0150 R25L/1300U R25R/0400N R01/0650N FG OVC001 04/04 Q1034 NOSIG=
202501160120 METAR EBBR 160120Z 14003KT 0150 R25L/0450N R25R/0350N R01/0450N FG OVC001 04/04 Q1034 NOSIG=
202501160050 METAR EBBR 160050Z 13002KT 0150 R25L/0325N R25R/0400N R01/0450N FG OVC001 04/04 Q1035 NOSIG=
202501160020 METAR EBBR 160020Z 15001KT 0150 R25L/0375N R25R/0400N R01/0400N FG OVC001 04/04 Q1035 NOSIG=
202501152350 METAR EBBR 152350Z 16001KT 0150 R25L/0450N R25R/0450N R01/0375N FG OVC001 04/04 Q1035 NOSIG=
202501152320 METAR EBBR 152320Z VRB01KT 0150 R25L/0600N R25R/0700N R01/0450N FG OVC001 04/04 Q1035 NOSIG=
202501152250 METAR EBBR 152250Z 17002KT 0250 R25L/0900D R25R/0800N R01/0550N FG OVC001 04/04 Q1035 NOSIG=
202501152220 METAR EBBR 152220Z 17003KT 0300 R25L/0750N R25R/0900U R01/0750N FG OVC001 04/04 Q1035 TEMPO 0400 FG OVC002=
202501152150 METAR EBBR 152150Z 21001KT 0300 R25L/0800N R25R/0900N R01/0800N FG OVC001 04/04 Q1035 TEMPO 0400 FG OVC002=
202501152120 METAR EBBR 152120Z 17001KT 0150 R25L/0600N R25R/0375N R01/0600N FG OVC001 05/05 Q1035 TEMPO 0400 FG OVC002=
202501152050 METAR EBBR 152050Z 18002KT 0150 R25L/0500N R25R/0325N R01/0450N FG OVC001 05/05 Q1035 TEMPO 0400 FG OVC002=
202501152020 METAR EBBR 152020Z 00000KT 0150 R25L/0400N R25R/0450N R01/0450N FG OVC001 05/05 Q1035 TEMPO 0400 FG OVC002=
202501151950 METAR EBBR 151950Z 18001KT 0150 R25L/0450N R25R/0450N R01/0450N FG OVC001 05/05 Q1035 TEMPO 0400 FG OVC002=
202501151920 METAR EBBR 151920Z 18002KT 0150 R25L/0400N R25R/0400D R01/0350N FG OVC001 05/05 Q1034 TEMPO 0400 FG OVC002=
202501151850 METAR EBBR 151850Z 18002KT 0150 R25L/0375N R25R/0350N R01/0350N FG OVC001 05/05 Q1034 TEMPO 0400 FG OVC002=
202501151820 METAR EBBR 151820Z 19001KT 0150 R25L/0350N R25R/0450N R01/0325N FG OVC001 05/05 Q1034 TEMPO 0400 FG OVC002=
202501151750 METAR EBBR 151750Z 20001KT 0200 R25L/0325N R25R/0400N R01/0450N FG OVC001 06/06 Q1034 TEMPO 0400 FG OVC002=
202501151720 METAR EBBR 151720Z 20001KT 0200 R25L/0450N R25R/0600N R01/0750N FG OVC001 06/06 Q1034 TEMPO 0400 FG OVC002=
202501151650 METAR EBBR 151650Z 24001KT 0400 R25L/0650N R25R/1500U R01/0700N FG OVC002 05/05 Q1034 TEMPO 0200 FG OVC001=
202501151620 METAR EBBR 151620Z 23001KT 0500 R25L/0550N R25R/1700N R01/1200N FG OVC002 06/06 Q1034 TEMPO 0200 FG OVC001=
202501151550 METAR EBBR 151550Z 26001KT 0300 R25L/0500N R25R/1000U R01/0650N FG OVC002 06/06 Q1034 TEMPO 0400 FG OVC001=
202501151520 METAR EBBR 151520Z VRB02KT 0200 R25L/0275N R25R/0325N R01/0400N FG OVC001 06/06 Q1034 TEMPO 0400 FG OVC002=
202501151450 METAR EBBR 151450Z 29002KT 0200 R25L/0300N R25R/0250N R01/0275N FG OVC001 06/06 Q1034 TEMPO 0400 FG OVC002=
202501151420 METAR EBBR 151420Z 30002KT 0200 R25L/0325N R25R/0250N R01/0275N FG OVC002 06/06 Q1033 TEMPO OVC001=
202501151350 METAR EBBR 151350Z 30002KT 0200 R25L/0400N R25R/0325N R01/0325N FG OVC002 06/06 Q1033 TEMPO OVC001=
202501151320 METAR EBBR 151320Z 00000KT 0400 R25L/0700D R25R/0450N R01/0500U FG OVC002 06/06 Q1034 TEMPO 0600 FG OVC002=
202501151250 METAR COR EBBR 151250Z VRB01KT 0300 R25L/0650U R25R/0500N R01/0325N FG OVC001 06/06 Q1034 TEMPO 0600 FG OVC002=
202501151220 METAR COR EBBR 151220Z 30001KT 0200 R25L/0400N R25R/0400N R01/0325N FG OVC001 06/06 Q1034 TEMPO 0500 FG=
202501151150 METAR EBBR 151150Z VRB02KT 0200 R25L/0400N R25R/0325N R01/0325N FG OVC001 06/06 Q1034 NOSIG=
202501151120 METAR EBBR 151120Z 29001KT 0200 R25L/0300N R25R/0350N R01/0275N FG OVC001 05/05 Q1034 NOSIG=
202501151050 METAR EBBR 151050Z 25001KT 0200 R25L/0275N R25R/0325N R01/0250N FG OVC001 05/05 Q1034 NOSIG=
202501151020 METAR EBBR 151020Z VRB01KT 0400 R25L/0225N R25R/0275N R01/0225N FG OVC001 04/04 Q1034 TEMPO 0300 FG=
202501150950 METAR EBBR 150950Z VRB02KT 0400 R25L/0275N R25R/0400N R01/0275N FG OVC001 04/04 Q1034 NOSIG=
202501150920 METAR EBBR 150920Z 21003KT 0400 R25L/0325N R25R/0500U R01/0325N FG OVC001 04/04 Q1034 NOSIG=
202501150850 METAR EBBR 150850Z 23004KT 0400 R25L/0350N R25R/0650N R01/0400N FG OVC001 03/03 Q1034 NOSIG=
202501150820 METAR EBBR 150820Z 22003KT 0400 R25L/0400N R25R/1100U R01/0375N FG OVC001 03/03 Q1033 BECMG 1500 BR BKN003=
202501150750 METAR EBBR 150750Z 22004KT 0400 R25L/0450N R25R/1000U R01/0450N FG OVC001 03/03 Q1033 BECMG 1500 BR BKN003=
202501150720 METAR EBBR 150720Z 24003KT 0400 R25L/0650N R25R/1400N R01/0550N FG OVC001 03/03 Q1033 TEMPO 0600 FG=
202501150650 METAR EBBR 150650Z VRB02KT 0300 R25L/0650N R25R/1100D R01/0550N FG OVC001 03/03 Q1033 TEMPO 0600 FG=
202501150620 METAR EBBR 150620Z VRB02KT 0200 R25L/0550N R25R/0800D R01/0600N FG OVC001 03/03 Q1033 NOSIG=
202501150550 METAR EBBR 150550Z 24004KT 0250 R25L/0600N R25R/0650N R01/0600N FG SCT000 OVC001 03/03 Q1032 TEMPO 0100 FG OVC000=
202501150520 METAR EBBR 150520Z 26003KT 0300 R25L/1100D R25R/1200N R01/0750N FG SCT000 OVC001 03/03 Q1032 TEMPO OVC000=
202501150450 METAR EBBR 150450Z 23003KT 0300 R25L/0700N R25R/1100U R01/0800N FG OVC001 03/03 Q1032 TEMPO OVC000=
202501150420 METAR EBBR 150420Z 24006KT 0400 R25L/1100D R25R/1200N R01/0800N FG -DZ OVC001 03/02 Q1032 TEMPO 0300 FG=
202501150350 METAR EBBR 150350Z 24004KT 0800 R25L/1700D R25R/1900D R01/1800D FG -DZ SCT001 OVC002 02/02 Q1033 TEMPO 1500 BR=
202501150320 METAR COR EBBR 150320Z 22003KT 1600 BR -DZ SCT001 OVC002 02/02 Q1033 TEMPO 0800 FG OVC001=
202501150250 METAR EBBR 150250Z 24004KT 1100 R25L/P2000N R25R/P2000N R01/P2000N BR -DZ OVC002 02/02 Q1033 TEMPO 0800 FG=
202501150220 METAR EBBR 150220Z 22005KT 1100 R25L/P2000N R25R/P2000N R01/1900N BR -DZ OVC002 02/02 Q1033 TEMPO 0800 FG=
202501150150 METAR EBBR 150150Z 23006KT 0800 R25L/P2000N R25R/1900N R01/1600U FG -DZ OVC002 02/02 Q1033 NOSIG=
202501150120 METAR EBBR 150120Z 24003KT 0800 R25L/1600U R25R/1800D R01/1900N FG -DZ OVC002 02/02 Q1033 TEMPO 1200 BR=
202501150050 METAR EBBR 150050Z 23004KT 0800 R25L/1900N R25R/1800N R01/1800N FG -DZ FEW001 OVC003 02/02 Q1033 TEMPO 1200 BR=
202501150020 METAR EBBR 150020Z 22004KT 1400 R25L/P2000N R25R/P2000N R01/P2000N BR -DZ FEW001 OVC003 02/02 Q1033 TEMPO 0800 FG -DZ=
202501142350 METAR EBBR 142350Z 23004KT 0800 R25L/P2000N R25R/1900N R01/P2000N FG -DZ FEW001 OVC003 02/02 Q1033 TEMPO OVC001=
202501142320 METAR EBBR 142320Z 25005KT 0800 R25L/P2000N R25R/1600D R01/P2000N FG SCT002 OVC003 02/02 Q1034 BECMG 0500 FG -DZ OVC001=
202501142250 METAR EBBR 142250Z 25005KT 0900 R25L/1800U R25R/1800D R01/1900N FG -DZ SCT002 OVC003 02/02 Q1034 BECMG 0500 FG -DZ OVC001=
202501142220 METAR EBBR 142220Z 26006KT 2000 BR -DZ SCT003 OVC004 02/01 Q1034 BECMG 0800 FG -DZ OVC001=
202501142150 METAR EBBR 142150Z 25006KT 4500 BR SCT004 OVC005 02/01 Q1033 BECMG 1200 -DZ BR OVC003=
202501142120 METAR EBBR 142120Z 24005KT 4000 -DZ SCT004 OVC006 02/01 Q1033 BECMG 2000 -DZ OVC004=
202501142050 METAR EBBR 142050Z 25007KT 4500 -DZ FEW004 OVC006 02/01 Q1034 BECMG 2000 -DZ OVC004=
202501142020 METAR COR EBBR 142020Z 23008KT 9000 -DZ BKN008 02/00 Q1034 BECMG 2000 -DZ OVC004=
202501141950 METAR EBBR 141950Z 23005KT 9000 BKN008 02/00 Q1034 NOSIG=
202501141920 METAR EBBR 141920Z 22005KT 9999 BKN007 02/00 Q1034 NOSIG=
202501141850 METAR EBBR 141850Z 22004KT 9999 OVC007 02/M00 Q1034 NOSIG=
202501141820 METAR EBBR 141820Z 23005KT 9999 FEW005 OVC007 02/00 Q1034 NOSIG=
202501141750 METAR EBBR 141750Z 24008KT 9999 BKN007 03/00 Q1034 NOSIG=
202501141720 METAR EBBR 141720Z 25008KT 9999 BKN007 03/M00 Q1034 NOSIG=
202501141650 METAR EBBR 141650Z 24006KT 9999 BKN010 BKN033 02/M01 Q1034 BECMG BKN008=
202501141620 METAR EBBR 141620Z 22006KT 9999 BKN030 02/M01 Q1034 BECMG BKN008=
202501141550 METAR EBBR 141550Z 23005KT CAVOK 02/M01 Q1034 BECMG BKN008=
202501141520 METAR COR EBBR 141520Z 23006KT CAVOK 02/M01 Q1034 BECMG SCT008 BKN012=
202501141450 METAR EBBR 141450Z 22007KT CAVOK 02/M02 Q1034 NOSIG=
202501141420 METAR EBBR 141420Z 22006KT CAVOK 02/M02 Q1034 NOSIG=
202501141350 METAR EBBR 141350Z 23006KT CAVOK 02/M02 Q1034 NOSIG=
202501141320 METAR EBBR 141320Z 25004KT CAVOK 02/M04 Q1034 NOSIG=
202501141250 METAR EBBR 141250Z 24003KT 220V290 CAVOK 02/M04 Q1035 NOSIG=
202501141220 METAR EBBR 141220Z 22009KT CAVOK 02/M04 Q1035 NOSIG=
202501141150 METAR EBBR 141150Z 25007KT CAVOK 01/M04 Q1035 NOSIG=
202501141120 METAR EBBR 141120Z 26006KT CAVOK 01/M05 Q1036 NOSIG=
202501141050 METAR EBBR 141050Z 26007KT CAVOK 01/M04 Q1036 NOSIG=
202501141020 METAR EBBR 141020Z 24006KT CAVOK 01/M05 Q1036 NOSIG=
202501140950 METAR EBBR 140950Z 22008KT CAVOK M00/M05 Q1036 NOSIG=
202501140920 METAR EBBR 140920Z 22005KT CAVOK M01/M05 Q1036 NOSIG=
202501140850 METAR EBBR 140850Z 21006KT CAVOK M01/M05 Q1036 NOSIG=
202501140820 METAR EBBR 140820Z 21009KT CAVOK M01/M05 Q1036 NOSIG=
202501140750 METAR EBBR 140750Z 22007KT CAVOK M02/M05 Q1036 NOSIG=
202501140720 METAR EBBR 140720Z 20007KT CAVOK M02/M05 Q1036 NOSIG=
202501140650 METAR EBBR 140650Z 20007KT CAVOK M03/M05 Q1036 NOSIG=
202501140620 METAR EBBR 140620Z 20004KT CAVOK M03/M05 Q1036 NOSIG=
202501140550 METAR EBBR 140550Z 21004KT CAVOK M03/M05 Q1036 NOSIG=
202501140520 METAR EBBR 140520Z 20005KT CAVOK M03/M05 Q1036 NOSIG=
202501140450 METAR EBBR 140450Z 19005KT CAVOK M03/M05 Q1036 NOSIG=
202501140420 METAR EBBR 140420Z 19003KT CAVOK M04/M05 Q1036 NOSIG=
202501140350 METAR EBBR 140350Z VRB01KT CAVOK M03/M05 Q1037 NOSIG=
202501140320 METAR EBBR 140320Z 24002KT CAVOK M03/M05 Q1036 NOSIG=
202501140250 METAR EBBR 140250Z 18006KT CAVOK M03/M05 Q1036 NOSIG=
202501140220 METAR EBBR 140220Z 20006KT CAVOK M02/M05 Q1036 NOSIG=
202501140150 METAR EBBR 140150Z 19005KT CAVOK M02/M05 Q1037 NOSIG=
202501140120 METAR EBBR 140120Z 19008KT CAVOK M02/M04 Q1037 NOSIG=
202501140050 METAR EBBR 140050Z 18007KT CAVOK M02/M04 Q1037 NOSIG=
202501140020 METAR EBBR 140020Z 19005KT CAVOK M02/M04 Q1037 NOSIG=
202501132350 METAR EBBR 132350Z 19004KT CAVOK M03/M04 Q1038 NOSIG=
202501132320 METAR EBBR 132320Z 18005KT CAVOK M03/M04 Q1038 NOSIG=
202501132250 METAR EBBR 132250Z 18003KT CAVOK M03/M05 Q1038 NOSIG=
202501132220 METAR EBBR 132220Z 28003KT CAVOK M03/M05 Q1038 NOSIG=
202501132150 METAR EBBR 132150Z 17007KT CAVOK M02/M04 Q1038 NOSIG=
202501132120 METAR EBBR 132120Z 19005KT CAVOK M01/M04 Q1038 NOSIG=
202501132050 METAR EBBR 132050Z 18004KT CAVOK M02/M04 Q1038 NOSIG=
202501132020 METAR EBBR 132020Z 17003KT CAVOK M02/M04 Q1038 NOSIG=
202501131950 METAR EBBR 131950Z 17005KT CAVOK M03/M04 Q1038 NOSIG=
202501131920 METAR EBBR 131920Z 19002KT CAVOK M02/M04 Q1039 NOSIG=
202501131850 METAR EBBR 131850Z 17002KT CAVOK M02/M04 Q1039 NOSIG=
202501131820 METAR EBBR 131820Z 18001KT CAVOK M01/M03 Q1039 NOSIG=
202501131750 METAR EBBR 131750Z 15004KT CAVOK M01/M04 Q1039 NOSIG=
202501131720 METAR EBBR 131720Z 14003KT CAVOK M01/M04 Q1040 NOSIG=
202501131650 METAR EBBR 131650Z 13002KT CAVOK 00/M04 Q1040 NOSIG=
202501131620 METAR EBBR 131620Z 00000KT CAVOK 01/M04 Q1040 NOSIG=
202501131550 METAR EBBR 131550Z 13002KT CAVOK 01/M04 Q1040 NOSIG=
202501131520 METAR EBBR 131520Z 14003KT CAVOK 02/M04 Q1040 NOSIG=
202501131450 METAR EBBR 131450Z 15001KT CAVOK 03/M03 Q1040 NOSIG=
202501131420 METAR EBBR 131420Z 13002KT CAVOK 03/M03 Q1040 NOSIG=
202501131350 METAR EBBR 131350Z 13004KT CAVOK 03/M03 Q1040 NOSIG=
202501131320 METAR EBBR 131320Z 15005KT CAVOK 03/M03 Q1041 NOSIG=
202501131250 METAR EBBR 131250Z 14005KT CAVOK 03/M03 Q1041 NOSIG=
202501131220 METAR EBBR 131220Z 14005KT CAVOK 03/M03 Q1041 NOSIG=
202501131150 METAR EBBR 131150Z 14005KT CAVOK 03/M04 Q1042 NOSIG=
202501131120 METAR EBBR 131120Z VRB02KT CAVOK 03/M02 Q1042 NOSIG=
202501131050 METAR EBBR 131050Z VRB01KT CAVOK 01/M01 Q1042 NOSIG=
202501131020 METAR EBBR 131020Z 00000KT 9000 NSC 01/M02 Q1043 NOSIG=
202501130950 METAR EBBR 130950Z 00000KT 9000 NSC 00/M02 Q1042 NOSIG=
202501130920 METAR EBBR 130920Z 19002KT CAVOK 01/M01 Q1042 NOSIG=
202501130850 METAR EBBR 130850Z 20001KT CAVOK 00/M01 Q1042 NOSIG=
202501130820 METAR EBBR 130820Z 17002KT CAVOK M02/M02 Q1042 NOSIG=
202501130750 METAR EBBR 130750Z 19004KT CAVOK M01/M03 Q1042 NOSIG=
202501130720 METAR EBBR 130720Z 18003KT CAVOK M01/M02 Q1042 NOSIG=
202501130650 METAR EBBR 130650Z 16002KT CAVOK M01/M02 Q1041 NOSIG=
202501130620 METAR EBBR 130620Z 15002KT CAVOK M01/M02 Q1041 NOSIG=
202501130550 METAR EBBR 130550Z 14003KT CAVOK M02/M02 Q1041 NOSIG=
202501130520 METAR EBBR 130520Z 00000KT 9999 FEW035 M00/M01 Q1041 NOSIG=
202501130450 METAR EBBR 130450Z 24001KT 9999 SCT035 00/M01 Q1042 NOSIG=
202501130420 METAR EBBR 130420Z 20001KT 9999 FEW035 M01/M02 Q1042 NOSIG=
202501130350 METAR EBBR 130350Z 16002KT 9999 FEW035 M00/M01 Q1042 NOSIG=
202501130320 METAR EBBR 130320Z 12003KT 9999 FEW035 00/M01 Q1041 NOSIG=
202501130250 METAR EBBR 130250Z 00000KT 9999 BKN035 01/M00 Q1042 NOSIG=
202501130220 METAR EBBR 130220Z 17002KT 9999 BKN035 01/M01 Q1041 NOSIG=
202501130150 METAR EBBR 130150Z 16001KT 9999 BKN035 02/00 Q1041 NOSIG=
202501130120 METAR EBBR 130120Z 15003KT 9999 BKN035 02/00 Q1041 NOSIG=
202501130050 METAR EBBR 130050Z 13003KT 9999 BKN036 02/00 Q1042 NOSIG=
202501130020 METAR EBBR 130020Z 12003KT 9999 BKN036 02/01 Q1042 NOSIG=
202501122350 METAR EBBR 122350Z VRB01KT 9999 BKN036 02/00 Q1042 NOSIG=
202501122320 METAR EBBR 122320Z VRB01KT 9999 BKN036 03/01 Q1042 NOSIG=
202501122250 METAR EBBR 122250Z VRB01KT 9999 BKN036 02/00 Q1042 NOSIG=
202501122220 METAR EBBR 122220Z VRB01KT 9999 BKN036 03/01 Q1042 NOSIG=
202501122150 METAR EBBR 122150Z VRB01KT 9999 BKN036 02/01 Q1042 NOSIG=
202501122120 METAR EBBR 122120Z VRB01KT 9999 BKN037 03/01 Q1042 NOSIG=
202501122050 METAR EBBR 122050Z VRB01KT 9999 BKN037 02/01 Q1042 NOSIG=
202501122020 METAR EBBR 122020Z VRB01KT 9999 BKN037 03/02 Q1042 NOSIG=
202501121950 METAR EBBR 121950Z 00000KT 9999 BKN037 02/01 Q1042 NOSIG=
202501121920 METAR EBBR 121920Z VRB01KT 9999 BKN037 02/01 Q1042 NOSIG=
202501121850 METAR EBBR 121850Z VRB01KT 9999 BKN037 02/01 Q1041 NOSIG=
202501121820 METAR EBBR 121820Z 26003KT 150V270 9999 BKN038 01/00 Q1041 NOSIG=
202501121750 METAR EBBR 121750Z 23001KT 9999 BKN038 01/00 Q1041 NOSIG=
202501121720 METAR EBBR 121720Z 00000KT 9999 BKN038 02/01 Q1041 NOSIG=
202501121650 METAR EBBR 121650Z 27001KT 9999 BKN036 03/01 Q1040 NOSIG=
202501121620 METAR EBBR 121620Z VRB01KT 9999 BKN034 03/01 Q1040 NOSIG=
202501121550 METAR EBBR 121550Z 27001KT 9999 BKN034 03/01 Q1040 NOSIG=
202501121520 METAR EBBR 121520Z 00000KT 9999 BKN038 03/01 Q1040 NOSIG=
202501121450 METAR EBBR 121450Z 00000KT 9999 BKN033 03/01 Q1040 NOSIG=
202501121420 METAR EBBR 121420Z 29002KT 9999 BKN033 03/01 Q1040 NOSIG=
202501121350 METAR EBBR 121350Z VRB01KT 9999 FEW025 BKN035 03/01 Q1040 NOSIG=
202501121320 METAR EBBR 121320Z 29001KT 9999 FEW027 BKN040 03/01 Q1039 NOSIG=
202501121250 METAR EBBR 121250Z VRB02KT 9999 FEW036 BKN040 03/01 Q1039 NOSIG=
202501121220 METAR EBBR 121220Z 32002KT 9999 FEW024 BKN040 03/01 Q1040 NOSIG=
202501121150 METAR EBBR 121150Z 26002KT 9000 FEW030 BKN040 02/01 Q1040 NOSIG=
202501121120 METAR EBBR 121120Z 27004KT 9000 FEW019 BKN041 02/01 Q1039 NOSIG=
202501121050 METAR EBBR 121050Z 26003KT 8000 FEW019 BKN041 02/00 Q1039 NOSIG=
202501121020 METAR EBBR 121020Z 28003KT 7000 BKN040 02/00 Q1039 NOSIG=
202501120950 METAR EBBR 120950Z 24002KT 7000 BKN041 01/00 Q1039 NOSIG=
202501120920 METAR EBBR 120920Z 24003KT 7000 BKN043 01/00 Q1039 NOSIG=
202501120850 METAR EBBR 120850Z 22003KT 7000 BKN043 01/00 Q1039 NOSIG=
202501120820 METAR EBBR 120820Z 21004KT 7000 BKN040 01/00 Q1038 NOSIG=
202501120750 METAR EBBR 120750Z 21003KT 7000 BKN040 00/M00 Q1038 NOSIG=
202501120720 METAR EBBR 120720Z 22002KT 7000 BKN040 01/00 Q1038 NOSIG=
202501120650 METAR EBBR 120650Z 24005KT 6000 BKN040 01/M00 Q1037 NOSIG=
202501120620 METAR EBBR 120620Z 23003KT 6000 BKN040 01/M00 Q1037 NOSIG=
202501120550 METAR EBBR 120550Z 22002KT 7000 BKN040 00/M00 Q1037 NOSIG=
202501120520 METAR EBBR 120520Z VRB02KT 7000 BKN040 00/M00 Q1036 NOSIG=
202501120450 METAR EBBR 120450Z 25004KT 6000 BKN040 01/M00 Q1036 TEMPO 4500 BR=
202501120420 METAR EBBR 120420Z 23003KT 6000 BKN042 00/M00 Q1036 TEMPO 4500 BR=
202501120350 METAR EBBR 120350Z 27003KT 6000 BKN042 00/M00 Q1036 NOSIG=
202501120320 METAR EBBR 120320Z 26003KT 5000 BR BKN042 00/M00 Q1035 NOSIG=
202501120250 METAR EBBR 120250Z 25004KT 5000 BR BKN042 00/M00 Q1035 NOSIG=
202501120220 METAR EBBR 120220Z 24004KT 5000 BR BKN042 00/M00 Q1035 NOSIG=
202501120150 METAR EBBR 120150Z 23003KT 5000 BR BKN042 00/M00 Q1035 NOSIG=
202501120120 METAR EBBR 120120Z 27005KT 5000 BR BKN040 00/M00 Q1034 NOSIG=
202501120050 METAR EBBR 120050Z 24004KT 5000 BR BKN040 M00/M00 Q1034 NOSIG=
202501120020 METAR EBBR 120020Z 25003KT 5000 BR FEW020 BKN040 00/M00 Q1034 NOSIG=
202501112350 METAR EBBR 112350Z 26006KT 5000 BR FEW020 SCT040 00/M00 Q1034 REFZRA NOSIG=
202501112320 METAR EBBR 112320Z 27007KT 5000 BR FEW020 SCT040 M00/M01 Q1034 REFZRA NOSIG=
202501112250 METAR EBBR 112250Z 27006KT 4800 BR -FZRA SCT018 BKN040 M00/M01 Q1034 TEMPO 6000 NSW=
202501112220 METAR EBBR 112220Z 26006KT 4800 BR BKN040 M00/M01 Q1033 TEMPO 6000 -FZRA=
202501112150 METAR EBBR 112150Z 26007KT 4400 BR FEW002 BKN040 M00/M01 Q1033 TEMPO 6000 -FZRA=
202501112120 METAR EBBR 112120Z 25005KT 4200 BR FEW002 BKN045 M00/M01 Q1033 TEMPO 6000 NSW=
202501112050 METAR EBBR 112050Z 25004KT 4000 BR FEW002 BKN032 M00/M01 Q1032 REFZRA TEMPO 6000 NSW=
202501112020 METAR EBBR 112020Z 25005KT 3000 BR -FZRA SCT002 BKN035 M01/M01 Q1032 TEMPO BKN002=
202501111950 METAR EBBR 111950Z 25006KT 3000 BR SCT002 M01/M01 Q1032 TEMPO 0800=
202501111920 METAR EBBR 111920Z 25005KT 1500 BR OVC002 M01/M01 Q1032 TEMPO 0800=
202501111850 METAR EBBR 111850Z 24006KT 1500 BR OVC002 M01/M01 Q1031 TEMPO 0800=
202501111820 METAR EBBR 111820Z 24006KT 2000 BR OVC002 M01/M01 Q1031 TEMPO 0800=
202501111750 METAR EBBR 111750Z 24004KT 0800 R25L/P2000N R25R/1400U R01/P2000N=
202501111720 METAR EBBR 111720Z 24004KT 0600 R25L/P2000N R25R/1500N R01/P2000N=
202501111650 METAR EBBR 111650Z 23004KT 0500 R25L/1500N R25R/1200U R01/1800U FZFG SCT000 OVC001 M01/M01 Q1030 NOSIG=
202501111620 METAR EBBR 111620Z 24005KT 0600 R25L/1000U R25R/1000N R01/1400N FZFG SCT000 OVC001 M01/M01 Q1030 NOSIG=
202501111550 METAR EBBR 111550Z 24004KT 0500 R25L/0900N R25R/0750N R01/1200U FZFG SCT001 OVC002 M00/M00 Q1030 NOSIG=
202501111520 METAR EBBR 111520Z 25003KT 0300 R25L/0650N R25R/0600N R01/0650N FZFG SCT000 OVC001 M00/M00 Q1029 NOSIG=
202501111450 METAR EBBR 111450Z 25004KT 0300 R25L/0450N R25R/0650N R01/0550U FZFG SCT000 OVC001 M00/M00 Q1029 NOSIG=
202501111420 METAR EBBR 111420Z 24005KT 0250 R25L/0375N R25R/0400N R01/0350N FZFG SCT000 OVC001 M00/M00 Q1029 NOSIG=
202501111350 METAR EBBR 111350Z 24004KT 0200 R25L/0375N R25R/0325N R01/0375N FZFG BKN000 OVC001 M00/M00 Q1029 NOSIG=
202501111320 METAR EBBR 111320Z 23005KT 0200 R25L/0300N R25R/0300N R01/0325N FZFG BKN000 OVC001 M00/M00 Q1028 NOSIG=
202501111250 METAR EBBR 111250Z 24004KT 0150 R25L/0275N R25R/0275N R01/0300N FZFG BKN000 OVC001 M00/M00 Q1028 NOSIG=
202501111220 METAR EBBR 111220Z 26003KT 220V290 0150 R25L/0275N R25R/0275N R01/0300N FZFG OVC000 M00/M00 Q1028 NOSIG=
202501111150 METAR EBBR 111150Z 26003KT 230V290 0150 R25L/0225N R25R/0350U R01/0275N FZFG OVC000 M01/M01 Q1028 NOSIG=
202501111120 METAR EBBR 111120Z 24003KT 210V280 0150 R25L/0250N R25R/0325N R01/0275N FZFG OVC000 M00/M01 Q1028 NOSIG=
202501111050 METAR EBBR 111050Z 25002KT 0150 R25L/0225N R25R/0300N R01/0275N FZFG OVC000 M00/M00 Q1028 NOSIG=
202501111020 METAR COR EBBR 111020Z 24002KT 0200 R25L/0275N R25R/0350N R01/0275N=
202501110950 METAR EBBR 110950Z 24003KT 0200 R25L/0275N R25R/0325N R01/0300N FZFG VV000 M01/M01 Q1027 NOSIG=
202501110920 METAR EBBR 110920Z 20002KT 0300 R25L/0325N R25R/0700N R01/0350N FZFG VV001 M01/M01 Q1027 NOSIG=
202501110850 METAR EBBR 110850Z VRB01KT 0300 R25L/0275N R25R/0750D R01/0500N FZFG VV001 M01/M01 Q1027 NOSIG=
202501110820 METAR COR EBBR 110820Z VRB01KT 0300 R25L/0400N R25R/0800D R01/1400N=
202501110750 METAR EBBR 110750Z 23002KT 0400 R25L/0400N R25R/1400U R01/0800U FZFG SCT001 OVC002 M01/M01 Q1026 TEMPO 0300 FZFG=
202501110720 METAR EBBR 110720Z 00000KT 0600 R25L/1900N R25R/1200N R01/1900N FZFG SCT001 OVC002 M01/M01 Q1025 TEMPO 0400 FZFG=
202501110650 METAR EBBR 110650Z VRB01KT 0800 R25L/P2000N R25R/1000N R01/P2000N=
202501110620 METAR COR EBBR 110620Z 25003KT 0900 R25L/P2000N R25R/1900N R01/P2000N=
202501110550 METAR EBBR 110550Z 26004KT 1100 R25L/1800N R25R/P2000N R01/P2000N BR BKN001 BKN002 M02/M02 Q1024 TEMPO 0800 FZFG=
202501110520 METAR EBBR 110520Z 25004KT 1000 R25L/1900N R25R/1900N R01/1900N BR SCT001 BKN002 M02/M02 Q1024 TEMPO 0800 FZFG=
202501110450 METAR EBBR 110450Z 25006KT 1500 BR FEW001 BKN002 M02/M02 Q1024 TEMPO 0800 FZFG=
202501110420 METAR EBBR 110420Z 24006KT 2000 BR FEW001 BKN002 M02/M03 Q1024 TEMPO 0800 FZFG=
202501110350 METAR EBBR 110350Z 24008KT 1900 BR FEW001 BKN002 M02/M03 Q1023 TEMPO 0800 FZFG=
202501110320 METAR EBBR 110320Z 23007KT 2000 BR FEW001 BKN002 M02/M03 Q1023 TEMPO 0800 FZFG=
202501110250 METAR EBBR 110250Z 21007KT 3500 BR NSC M03/M04 Q1023 TEMPO 0800 FZFG=
202501110220 METAR EBBR 110220Z 20004KT 3500 BR NSC M04/M04 Q1023 TEMPO 0800 FZFG=
202501110150 METAR EBBR 110150Z 20003KT 5000 BR NSC M04/M05 Q1022 TEMPO 0800 FZFG=
202501110120 METAR EBBR 110120Z 21005KT 5000 BR NSC M04/M04 Q1022 TEMPO 0800 FZFG=
202501110050 METAR EBBR 110050Z 21006KT 5000 BR NSC M03/M04 Q1022 BECMG 0800 FZFG=
202501110020 METAR EBBR 110020Z 22005KT 3800 BR NSC M04/M04 Q1022 BECMG 0800 FZFG=
202501102350 METAR EBBR 102350Z 21005KT 3800 BR NSC M03/M04 Q1022 BECMG 0800 FZFG=
202501102320 METAR EBBR 102320Z 21005KT 5000 BR NSC M03/M03 Q1022 BECMG 0800 FZFG=
202501102250 METAR EBBR 102250Z 21005KT 5000 BR NSC M02/M03 Q1022 BECMG 0800 FZFG=
202501102220 METAR EBBR 102220Z 21008KT 5000 BR NSC M02/M03 Q1022 BECMG 0800 FZFG=
202501102150 METAR EBBR 102150Z 21008KT 5000 BR NSC M02/M03 Q1021 BECMG 0800 FZFG=
202501102120 METAR EBBR 102120Z 21007KT 5000 BR NSC M02/M03 Q1021 BECMG 0800 FZFG=
202501102050 METAR EBBR 102050Z 21006KT 9000 NSC M02/M03 Q1021 BECMG 0800 FZFG=
202501102020 METAR EBBR 102020Z 20006KT 9000 NSC M02/M03 Q1021 BECMG 0800 FZFG=
202501101950 METAR EBBR 101950Z 21007KT CAVOK M02/M03 Q1021 BECMG 0800 FZFG=
202501101920 METAR EBBR 101920Z 21007KT CAVOK M02/M03 Q1021 BECMG 0800 FZFG=
202501101850 METAR EBBR 101850Z 20006KT CAVOK M03/M03 Q1021 BECMG 0800 FZFG=
202501101820 METAR EBBR 101820Z 20005KT CAVOK M03/M03 Q1020 NOSIG=
202501101750 METAR EBBR 101750Z 23005KT CAVOK M02/M03 Q1020 NOSIG=
202501101720 METAR EBBR 101720Z 22006KT CAVOK M01/M02 Q1020 NOSIG=
202501101650 METAR EBBR 101650Z 23004KT CAVOK M02/M03 Q1020 NOSIG=
202501101620 METAR EBBR 101620Z 23006KT CAVOK M01/M03 Q1020 NOSIG=
202501101550 METAR EBBR 101550Z 24005KT CAVOK M00/M02 Q1020 NOSIG=
202501101520 METAR EBBR 101520Z 24005KT CAVOK M01/M03 Q1020 NOSIG=
202501101450 METAR EBBR 101450Z 24005KT CAVOK 00/M02 Q1019 NOSIG=
202501101420 METAR EBBR 101420Z 25004KT CAVOK 00/M03 Q1019 NOSIG=
202501101350 METAR EBBR 101350Z 26004KT 9999 FEW024 02/M01 Q1019 NOSIG=
202501101320 METAR EBBR 101320Z 25005KT 9999 FEW020 02/M01 Q1019 NOSIG=
202501101250 METAR EBBR 101250Z 24007KT 9999 FEW020 02/M01 Q1019 NOSIG=
202501101220 METAR EBBR 101220Z 24008KT 9999 SCT018 02/M01 Q1019 NOSIG=
202501101150 METAR EBBR 101150Z 25008KT 9999 FEW021 02/M01 Q1019 NOSIG=
202501101120 METAR EBBR 101120Z 24007KT CAVOK 01/M01 Q1019 NOSIG=
202501101050 METAR EBBR 101050Z 25007KT CAVOK 01/M02 Q1019 NOSIG=
202501101020 METAR EBBR 101020Z 24005KT CAVOK 01/M02 Q1019 NOSIG=
202501100950 METAR EBBR 100950Z 24008KT CAVOK 00/M02 Q1019 NOSIG=
202501100920 METAR EBBR 100920Z 24006KT CAVOK M01/M02 Q1019 NOSIG=
202501100850 METAR EBBR 100850Z 23008KT CAVOK M00/M02 Q1019 NOSIG=
202501100820 METAR EBBR 100820Z 23008KT 9999 FEW033 M01/M02 Q1018 NOSIG=
202501100750 METAR EBBR 100750Z 22007KT 9999 FEW032 M02/M03 Q1018 NOSIG=
202501100720 METAR EBBR 100720Z 22008KT 9999 FEW034 M01/M03 Q1018 NOSIG=
202501100650 METAR EBBR 100650Z 22008KT 9999 FEW034 M01/M03 Q1018 NOSIG=
202501100620 METAR EBBR 100620Z 22008KT 9999 FEW034 M01/M03 Q1017 NOSIG=
202501100550 METAR EBBR 100550Z 21010KT 9999 FEW026 M01/M03 Q1017 NOSIG=
202501100520 METAR EBBR 100520Z 22010KT 9999 FEW026 M01/M02 Q1017 NOSIG=
202501100450 METAR EBBR 100450Z 23009KT 9999 SCT040 M00/M02 Q1017 NOSIG=
202501100420 METAR EBBR 100420Z 24008KT 9999 SCT040 M00/M02 Q1017 NOSIG=
202501100350 METAR EBBR 100350Z 25008KT 9999 SCT040 01/M02 Q1017 NOSIG=
202501100320 METAR EBBR 100320Z 25009KT 9999 SCT040 01/M01 Q1017 NOSIG=
202501100250 METAR EBBR 100250Z 25010KT 9999 SCT040 01/M02 Q1017 NOSIG=
202501100220 METAR EBBR 100220Z 25012KT 9999 BKN040 01/M01 Q1016 NOSIG=
202501100150 METAR EBBR 100150Z 25012KT 9999 BKN040 01/M01 Q1016 NOSIG=
202501100120 METAR EBBR 100120Z 24011KT 9999 BKN040 01/M02 Q1016 NOSIG=
202501100050 METAR EBBR 100050Z 23012KT 9999 BKN040 01/M02 Q1016 NOSIG=
202501100020 METAR EBBR 100020Z 23011KT 9999 BKN035 00/M02 Q1016 NOSIG=
202501092350 METAR EBBR 092350Z 24011KT 9999 SCT035 00/M02 Q1016 NOSIG=
202501092320 METAR EBBR 092320Z 24011KT 9999 FEW037 00/M02 Q1015 NOSIG=
202501092250 METAR EBBR 092250Z 25012KT 9999 FEW037 01/M02 Q1015 NOSIG=
202501092220 METAR EBBR 092220Z 24010KT CAVOK 00/M02 Q1015 NOSIG=
202501092150 METAR EBBR 092150Z 24011KT CAVOK 00/M02 Q1014 NOSIG=
202501092120 METAR EBBR 092120Z 24011KT 9999 FEW033 00/M02 Q1014 NOSIG=
202501092050 METAR EBBR 092050Z 24011KT 9999 FEW033 00/M02 Q1014 NOSIG=
202501092020 METAR EBBR 092020Z 24010KT 9999 FEW033 01/M01 Q1013 NOSIG=
202501091950 METAR EBBR 091950Z 24013KT 9999 FEW033 01/M01 Q1013 NOSIG=
202501091920 METAR EBBR 091920Z 25013KT 9999 -SHSN FEW014 BKN030 01/M01 Q1012 NOSIG=
202501091850 METAR EBBR 091850Z 24012KT CAVOK 01/M01 Q1012 NOSIG=
202501091820 METAR EBBR 091820Z 25011KT 9999 FEW036 01/M01 Q1011 NOSIG=
202501091750 METAR EBBR 091750Z 24011KT 9999 FEW030 01/M01 Q1011 NOSIG=
202501091720 METAR EBBR 091720Z 24011KT CAVOK 01/M00 Q1010 NOSIG=
202501091650 METAR EBBR 091650Z 24012KT CAVOK 01/M00 Q1010 NOSIG=
202501091620 METAR EBBR 091620Z 25011KT 9999 FEW008 02/00 Q1009 NOSIG=
202501091550 METAR EBBR 091550Z 25012KT 9999 FEW008 02/01 Q1008 NOSIG=
202501091520 METAR EBBR 091520Z 25009KT 9999 FEW008 SCT040 02/01 Q1008 NOSIG=
202501091450 METAR EBBR 091450Z 26007KT 9999 FEW008 SCT030 02/01 Q1007 NOSIG=
202501091420 METAR COR EBBR 091420Z 28008KT 9000 FEW008 SCT032 02/00 Q1006 NOSIG=
202501091350 METAR EBBR 091350Z 27008KT 9000 VCSH FEW010 01/00 Q1006 BECMG BKN015=
202501091320 METAR EBBR 091320Z 27009KT 7000 -SHRA BKN007 01/00 Q1005 BECMG BKN015=
202501091250 METAR COR EBBR 091250Z 29008KT 7000 BKN006 01/01 Q1005 BECMG BKN015=
202501091220 METAR COR EBBR 091220Z 30008KT 5000 BR BKN004 01/00 Q1004 BECMG BKN006 TEMPO 2000 SHSNRA BKN010CB=
202501091150 METAR COR EBBR 091150Z 30007KT 4000 BR BKN003 00/M00 Q1003 BECMG 8000 NSW FEW003 BKN010=
202501091120 METAR EBBR 091120Z 30004KT 4000 BR BKN003 00/M00 Q1003 BECMG 8000 NSW FEW003 SCT035=
202501091050 METAR COR EBBR 091050Z 30002KT 3200 -SN SCT003 BKN005 00/M00 Q1002 TEMPO BKN003 BECMG 8000 NSW FEW003 SCT035=
202501091020 METAR COR EBBR 091020Z 36005KT 2800 -SN FEW002 OVC003 00/00 Q1002 BECMG 8000 NSW SCT035=
202501090950 METAR COR EBBR 090950Z 01007KT 1400 R25L/1900N R25R/1300U R01/1100U -SN SCT003 OVC005 00/M00 Q1001 TEMPO BKN003 OVC005 BECMG 5000 -SN=
202501090920 METAR EBBR 090920Z 35007KT 1100 R25L/1300N R25R/1700U R01/1000U SN BKN003 OVC005 M00/M00 Q1001 BECMG 2000 -SN SCT003 OVC005=
202501090850 METAR EBBR 090850Z 01008KT 0800 R25L/1500U R25R/1000U R01/0900N SN FEW002 OVC003 M00/M00 Q1000 BECMG 2000 -SN SCT003 OVC005=
202501090820 METAR EBBR 090820Z 01010KT 1500 -SN BKN003 OVC005 M00/M00 Q1000 TEMPO 1200 SN SCT003 OVC005=
202501090750 METAR COR EBBR 090750Z 01010KT 1400 R25L/P2000N R25R/P2000N R01/1900D -SN BKN003 OVC005 M00/M00 Q0999 TEMPO 1800 SN SCT003 OVC005=
202501090720 METAR COR EBBR 090720Z 01009KT 1200 R25L/P2000N R25R/P2000N R01/P2000N -SN OVC003 M00/M00 Q0999 TEMPO 1800 SN=
202501090650 METAR COR EBBR 090650Z 02008KT 1800 -SN OVC003 M00/M00 Q0998 TEMPO 1400 SN=
202501090620 METAR EBBR 090620Z 02009KT 1800 -SN OVC003 M00/M00 Q0998 TEMPO 3500 -SN OVC005=
202501090550 METAR COR EBBR 090550Z 02007KT 2000 -SN OVC003 M00/M00 Q0997 TEMPO 3500 -SN OVC005=
202501090520 METAR EBBR 090520Z 03005KT 1200 R25L/1700D R25R/1900N R01/P2000N -SN OVC003 M00/M00 Q0997 TEMPO 2500 -SN OVC005=
202501090450 METAR EBBR 090450Z 03004KT 1800 -SN OVC003 M00/M00 Q0997 TEMPO 2500 -SN OVC005=
202501090420 METAR EBBR 090420Z 04005KT 1800 -SN OVC003 M00/M00 Q0997 TEMPO 2500 -SN OVC005=
202501090350 METAR COR EBBR 090350Z 04004KT 1800 -SN OVC003 M00/M00 Q0997 TEMPO 2500 -SN OVC005=
202501090320 METAR EBBR 090320Z 05005KT 1800 -SN OVC003 M00/M00 Q0997 TEMPO 0600=
202501090250 METAR EBBR 090250Z 05004KT 3000 -SN OVC004 00/M00 Q0997 TEMPO 1200=
202501090220 METAR EBBR 090220Z 03005KT 3500 -SNRA OVC004 00/M00 Q0997 TEMPO 1200=
202501090150 METAR EBBR 090150Z 04005KT 4000 -SNRA OVC004 00/M00 Q0997 TEMPO 1200=
202501090120 METAR COR EBBR 090120Z 03004KT 4000 -SN OVC004 00/M00 Q0997 TEMPO 2000 -SNRA OVC005=
202501090050 METAR EBBR 090050Z 03004KT 9999 -SN OVC006 00/00 Q0997 TEMPO 3500 -SNRA OVC004=
202501090020 METAR EBBR 090020Z 06003KT 9999 -SN OVC006 00/00 Q0997 TEMPO 3500 -SNRA OVC004=
202501082350 METAR EBBR 082350Z 05006KT 8000 -SN OVC005 00/M00 Q0997 TEMPO 3500 -SNRA OVC004=
202501082320 METAR EBBR 082320Z 07005KT 6000 -SN OVC004 00/M00 Q0996 TEMPO 3500 -SNRA OVC005=
202501082250 METAR EBBR 082250Z 05006KT 5000 -SN OVC004 00/M00 Q0996 TEMPO 3500 -SNRA OVC005=
202501082220 METAR EBBR 082220Z 06007KT 5000 -SN OVC005 00/M00 Q0996 TEMPO 3500 -SNRA OVC004=
202501082150 METAR COR EBBR 082150Z 05008KT 9999 -SN OVC006 00/M00 Q0996 TEMPO 3500 -SNRA OVC004=
202501082120 METAR EBBR 082120Z 05008KT 6000 -SN OVC005 00/M00 Q0996 NOSIG=
202501082050 METAR EBBR 082050Z 05006KT 6000 -SN OVC004 M00/M00 Q0997 TEMPO OVC005=
202501082020 METAR COR EBBR 082020Z 05001KT 1800 -SN OVC003 M00/M00 Q0996 TEMPO 6000 -SN OVC005=
202501081950 METAR EBBR 081950Z 00000KT 1000 R25L/P2000N R25R/1800D R01/1900N SN OVC003 M00/M00 Q0997 TEMPO 3000 -SN OVC005=
202501081920 METAR COR EBBR 081920Z 06003KT 0600 R25L/1500N R25R/1600N R01/1700N SN OVC003 M00/M00 Q0997 BECMG 3000 -SN=
202501081850 METAR EBBR 081850Z 08004KT 0900 R25L/1900N R25R/1800D R01/1600D SN BKN003 BKN005 M00/M00 Q0997 TEMPO 0600 SN=
202501081820 METAR EBBR 081820Z 10005KT 2500 -SN BKN003 BKN006 00/M00 Q0998 RERA TEMPO 1200 SN=
202501081750 METAR EBBR 081750Z 12005KT 2500 -SNRA FEW003 BKN009 00/M00 Q0999 TEMPO 1200 SN BKN004=
202501081720 METAR EBBR 081720Z 14008KT 1600 SNRA FEW006 BKN008 00/M00 Q1000 TEMPO 1200 SN BKN004=
202501081650 METAR COR EBBR 081650Z 15007KT 100V180 4000 RASN FEW007 BKN012 OVC020 02/01 Q1000 BECMG 2500 MODRASN BKN006 TEMPO 0600 SN BKN004=
202501081620 METAR COR EBBR 081620Z 14007KT 9999 -RASN FEW010 OVC046 03/02 Q1000 BECMG 2800 RASN BKN006 TEMPO 1200 SN BKN004=

# No short TAF reports from EBBR in databse.

###################################
#  large TAF from EBBR
###################################
202501171110 TAF EBBR 171110Z 1712/1818 06003KT 0300 FG BKN001
                      PROB30 TEMPO 1712/1718 3500 BR BKN006
                      BECMG 1721/1724 FZFG
                      PROB30 TEMPO 1812/1818 6000 NSW SCT006=
202501170500 TAF EBBR 170500Z 1706/1812 VRB03KT 2500 BR BKN003
                      TEMPO 1706/1711 0300 FG BKN001
                      PROB30 TEMPO 1706/1709 FZFG
                      BECMG 1711/1714 3500 BR
                      PROB30 TEMPO 1715/1718 6000 NSW BKN006
                      BECMG 1721/1724 0400 FZFG VV001
                      BECMG 1810/1812 4000 BR BKN008=
202501162300 TAF EBBR 162300Z 1700/1806 16003KT 1400 BR SCT002 BKN003
                      BECMG 1700/1702 0300 FG FZFG BKN001
                      BECMG 1711/1713 4000 BR
                      PROB30 TEMPO 1715/1718 6000 NSW BKN006
                      BECMG 1720/1723 0400 FZFG VV001=
202501161915 TAF AMD EBBR 161915Z 1619/1724 15003KT 6000 BKN005
                      BECMG 1619/1621 3000 BR FEW005
                      BECMG 1621/1624 0400 FZFG VV001
                      BECMG 1712/1714 4000 BR BKN004
                      TEMPO 1715/1718 5000 NSW BKN005
                      BECMG 1720/1722 0400 FZFG VV001=
202501161853 TAF AMD EBBR 161853Z 1618/1724 15003KT 6000 BKN005
                      BECMG 1618/1620 3000 BR FEW005
                      BECMG 1621/1624 0400 FZFG VV001
                      BECMG 1712/1714 4000 BR BKN004
                      TEMPO 1715/1718 5000 NSW BKN005
                      BECMG 1720/1722 0400 FZFG VV001=
202501161704 TAF EBBR 161704Z 1618/1724 15003KT 6000 BKN006
                      BECMG 1618/1620 3000 BR FEW006
                      BECMG 1622/1624 0400 FZFG VV001
                      BECMG 1712/1714 4000 BR BKN004
                      TEMPO 1715/1718 5000 NSW BKN005
                      BECMG 1720/17220400 FZFG VV001=
202501161120 TAF EBBR 161120Z 1612/1718 17003KT 0800 FG BKN002
                      BECMG 1612/1614 1500 BR BKN004
                      PROB30 TEMPO 1615/1618 5000 NSW SCT005
                      BECMG 1618/1620 1200 BR
                      BECMG 1620/1622 0400 FZFG VV001
                      BECMG 1710/1712 4000 BR BKN004
                      BECMG 1712/1714 8000 NSW NSC=
202501160500 TAF EBBR 160500Z 1606/1712 13004KT 3500 BR SCT004 BKN018
                      PROB40 TEMPO 1606/1609 0600 FG BKN002
                      BECMG 1608/1610 9999 NSW SCT008 BKN012
                      BECMG 1610/1612 CAVOK
                      BECMG 1619/1622 4000 BR
                      TEMPO 1622/1710 2000 BR MIFG
                      PROB30 TEMPO 1623/1709 0400 FG FZFG VV001
                       BECMG 1710/1712 9999 NSW=
202501152300 TAF EBBR 152300Z 1600/1706 VRB03KT 0200 FG BKN001
                      BECMG 1610/1612 8000 NSW BKN008
                      BECMG 1612/1614 SCT010
                      BECMG 1619/1621 4000 BR
                      TEMPO 1621/1706 2000 BR MIFG
                      PROB30 TEMPO 1622/1706 0500 FG FZFG VV001=
202501151720 TAF EBBR 151720Z 1518/1624 VRB03KT 0300 FG BKN001
                      BECMG 1610/1612 9999 NSW FEW012
                      BECMG 1619/1621 4000 BR
                      PROB30 TEMPO 1621/1624 0600 BCFG=
202501151120 TAF EBBR 151120Z 1512/1618 VRB03KT 0600 FG -DZ BKN001
                      PROB40 1512/1518 1500 BR BKN003
                      PROB30 TEMPO 1512/1518 4500 BKN006
                      BECMG 1610/1612 9999 NSW FEW012=
202501150504 TAF EBBR 150504Z 1506/1612 23003KT 0600 FG -DZ BKN001
                      BECMG 1508/1510 1500 BR BKN003
                      PROB40 1510/1520 6000 NSW BKN006
                      PROB30 TEMPO 1520/1609 0400 FG BKN001
                      BECMG 1610/1612 6000 NSW SCT005 BKN010=
202501142303 TAF EBBR 142303Z 1500/1606 23004KT 1500 BR -DZ BKN003
                      PROB40 1500/1509 0300 FG BKN001
                      BECMG 1509/1511 4000 BKN005
                      PROB40 TEMPO 1510/1520 6000 NSW SCT005 BKN009
                       PROB40
                      TEMPO 1522/1606 1500 BKN003=
202501142300 TAF EBBR 142300Z NIL=
202501141702 TAF EBBR 141702Z 1418/1524 22006KT 9999 BKN025
                      BECMG 1418/1420 4000 BR BKN007
                      BECMG 1422/1424 2000 -DZ -DZRA BKN003
                      PROB40 1500/1509 0300 FG BKN001
                      PROB40 TEMPO 1509/1512 6000 NSW SCT006 BKN013=
202501141111 TAF EBBR 141111Z 1412/1518 23006KT CAVOK
                      BECMG 1416/1418 SCT008 BKN013
                      BECMG 1418/1420 4000 BR BKN007
                      BECMG 1422/1424 2000 -DZ -DZRA BKN003
                      PROB40 1500/1509 0300 FG BKN001=
202501140510 TAF EBBR 140510Z 1406/1512 22004KT CAVOK
                      BECMG 1418/1420 BKN008
                      BECMG 1420/1422 2500 BR -DZRA -DZ BKN003
                       PROB40
                      TEMPO 1422/1512 0400 FG BKN001=
202501132306 TAF EBBR 132306Z 1400/1506 22004KT CAVOK
                      BECMG 1417/1419 BKN008
                      BECMG 1419/1421 2500 BR -DZRA BKN003
                      PROB40 TEMPO 1422/1506 0800 FG BKN001=
202501131720 TAF EBBR 131720Z 1318/1424 16004KT CAVOK
                      BECMG 1418/1420 BKN008
                      BECMG 1420/1422 2500 BR -FZDZ BKN003
                      PROB40 TEMPO 1421/1424 0800 FG BKN001=
202501131120 TAF EBBR 131120Z 1312/1418 VRB03KT CAVOK
                      PROB30 TEMPO 1317/1324 0400 BCFG=
202501130515 TAF EBBR 130515Z 1306/1412 VRB03KT CAVOK
                      PROB40 1306/1311 0300 FZFG BKN001
                      PROB30 1321/1404 0400 BCFG=
202501122308 TAF EBBR 122308Z 1300/1406 VRB03KT 9999 BKN035
                      BECMG 1300/1302 3500 BR
                      BECMG 1302/1304 0300 FZFG BKN001
                      PROB30 1311/1316 CAVOK
                      BECMG 1321/1324 CAVOK=
202501121840 TAF COR EBBR 121840Z 1218/1324 VRB03KT 7000 FEW020 SCT035
                      BECMG 1218/1220 3500 BR
                      BECMG 1220/1223 0300 FZFG BKN001
                      PROB40 TEMPO 1311/1318 4000 BR SCT004=
202501121720 TAF EBBR 121720Z 1218/1324 VRB03KT 7000 FEW020 SCT035
                      BECMG 1218/1220 3500 BR
                      BECMG 1220/1223 0300 FZFG BKN001
                      PROB30 TEMPO 1311/1318 4000 BR SCT004
                      BECMG 1318/1321 0300 FZFG BKN001=
202501121120 TAF EBBR 121120Z 1212/1318 VRB03KT 7000 SCT035
                      BECMG 1218/1221 0300 FZFG BKN001
                      PROB30 TEMPO 1311/1318 4000 BR SCT004=
202501120503 TAF EBBR 120503Z 1206/1312 26003KT 7000 BKN040
                      TEMPO 1206/1208 4000 BR
                      BECMG 1217/1219 3000 BR
                      BECMG 1219/1221 0300 FZFG BKN001
                      BECMG 1309/1311 4000 BR SCT004=
202501112302 TAF EBBR 112302Z 1200/1306 26003KT 2500 BR SCT002 SCT025
                      PROB30 TEMPO 1202/1210 0400 FZFG BKN001
                      BECMG 1210/1212 7000 NSW
                      BECMG 1217/1220 0300 FZFG BKN001=
202501111720 TAF EBBR 111720Z 1118/1224 30004KT 0400 FZFG BKN001
                      PROB30 TEMPO 1118/1211 1800 BR BKN003
                      BECMG 1211/1213 2500 BR BKN004
                      TEMPO 1211/1218 8000 NSW SCT010
                      PROB30 TEMPO 1218/1224 0500 FZFG BKN001=
202501111120 TAF EBBR 111120Z 1112/1218 VRB03KT 0300 FZFG BKN001
                      PROB30 TEMPO 1112/1118 1800 BR BKN003
                      BECMG 1211/1213 2500 BR BKN004
                      TEMPO 1211/1218 8000 NSW SCT010=
202501110500 TAF EBBR 110500Z 1106/1212 22003KT 2500 BR BKN002
                      PROB40 TEMPO 1106/1110 0400 FZFG BKN001
                      PROB40 TEMPO 1111/1117 6000 NSW BKN004
                      PROB40 TEMPO 1118/1206 0400 FZFG BKN001=
202501102309 TAF EBBR 102309Z 1100/1206 22003KT 4000 BR NSC
                      PROB40 TEMPO 1100/1110 0400 FZFG BKN001
                      PROB40 TEMPO 1111/1117 6000 NSW BKN004
                      PROB40 TEMPO 1118/1206 0400 FZFG BKN001=
202501101716 TAF EBBR 101716Z 1018/1124 24005KT 8000 FEW020
                      BECMG 1018/1020 4000 BR
                      PROB30 TEMPO 1020/1103 0300 BCFG FZFG BKN001
                       TEMPO 1103/1124 2500 BKN004
                      PROB40 1103/1114 0300 FZFG BKN001=
202501101101 TAF EBBR 101101Z 1012/1118 24005KT 9999 FEW025
                      BECMG 1017/1019 4000 BR
                      PROB30 TEMPO 1020/1104 0300 BCFG FZFG BKN001
                       TEMPO 1104/1118 2500 BKN004
                      PROB40 1104/1118 0300 FZFG BKN001=
202501100510 TAF EBBR 100510Z 1006/1112 22006KT 9999 FEW020
                      BECMG 1019/1021 3500 BR
                      BECMG 1021/1023 2500 BR BKN004
                      PROB40 1023/1110 0300 FZFG BKN001
                      BECMG 1110/1112 3500 BR BKN005=
202501092310 TAF EBBR 092310Z 1000/1106 23007KT 9999 FEW020
                      PROB30 TEMPO 1006/1010 BKN006
                      BECMG 1020/1022 4000 BR
                      BECMG 1022/1024 2500 BR BKN004
                      PROB40 1022/1106 0300 FZFG BKN001=
202501091720 TAF EBBR 091720Z 0918/1024 14008KT 9999 FEW030
                      BECMG 0921/0923 SCT008 BKN012
                      PROB40 TEMPO 0923/1012 3000 BR BKN004
                      BECMG 1012/1014 FEW008
                      PROB40 1012/1020 1500 BR BKN004=
202501091120 TAF EBBR 091120Z 0912/1018 29007KT 6000 FEW008 SCT012
                      PROB30 TEMPO 0912/0913 2000 -SN BR SCT002
                       BKN004
                      PROB40 TEMPO 0913/0918 2000 SHSNRA BKN004
                       BKN010CB
                      BECMG 0921/0923 SCT008 BKN012
                      PROB30 TEMPO 1001/1003 2000 -SN
                      PROB40 1003/1012 1800 BR BKN003
                      BECMG 1012/1014 FEW008
                      PROB40 1012/1018 1500 BR BKN004=
202501090510 TAF EBBR 090510Z 0906/1012 35007KT 3500 -SN SCT003 BKN005
                      TEMPO 0906/0909 1200 SN BKN003
                      BECMG 0909/0911 8000 NSW FEW006 SCT012
                      PROB40 TEMPO 0912/0917 2500 SHRAGS SHRASN
                       BKN006 BKN012CB
                      BECMG 0916/0918 24010KT
                      PROB30 TEMPO 1006/1010 4000 BR BKN006=
202501082310 TAF EBBR 082310Z 0900/1006 03007KT 6000 -SN -SNRA SCT003 BKN006
                       PROB40
                      TEMPO 0900/0908 1200 SN SNRA BKN003
                      BECMG 0908/0911 33010KT FEW006 SCT012
                      PROB40 TEMPO 0912/0916 2500 SHRAGS SHRASN
                       BKN006 BKN012CB
                      BECMG 0915/0917 25010KT=
202501082034 TAF COR EBBR 082034Z 0820/0924 08007KT 3500 -RASN SCT003 BKN006
                       TEMPO 0818/0908 1200 SNRA BKN003
                      PROB40 TEMPO 0819/0822 0600 SN SG FZFG BKN001
                       PROB40
                      TEMPO 0902/0905 0600 SN SG BKN002
                      PROB30 TEMPO 0905/0908 0800 FG -SNRA BKN002
                       BECMG 0908/0910 3500 BR SCT003 BKN006
                      BECMG 0910/0912 6000 NSW SCT006 BKN012
                      PROB30 TEMPO 0912/0916 2500 SHRAGS SHRASN
                       BKN006 BKN012CB
                      BECMG 0914/0916 FEW025=
202501081720 TAF EBBR 081720Z 0818/0924 08007KT 3500 -RASN SCT003 BKN006
                      TEMPO 0818/0908 1200 SNRA BKN003
                      PROB40 TEMPO 0819/0922 0600 SN SG FZFG BKN001
                       PROB40
                      TEMPO 0902/0905 0600 SN SG BKN002
                      PROB30 TEMPO 0905/0908 0800 FG -SNRA BKN002
                       BECMG 0908/0910 3500 BR SCT003 BKN006
                      BECMG 0910/0912 6000 NSW SCT006 BKN012
                      PROB30 TEMPO 0912/0916 2500 SHRAGS SHRASN
                       BKN006 BKN012CB
                      BECMG 0914/0916 FEW025=

</pre>

</body>

</html>