METAR EBBR 141620Z 22006KT 9999 BKN030 02/M01 Q1034 BECMG BKN008

Details of runways:

METAR EBBR 150820Z 22003KT 0400 R25L/0400N R25R/1100U R01/0375N FG OVC001 03/03 Q1033 BECMG 1500 BR BKN003

--
crazy!

KSLN 210553Z AUTO 02014KT 5SM BR OVC009 01/M01 A2982 RMK AO2 UPB11E12B44E47FZRAB29E44SNE11B12E14 CIG 007V014 SLP107 P0000 60005 T00061011 10011 20006 400330006 51016 TSNO

CYXX 212100Z 23009KT 25SM FEW035 FEW040 SCT062 OVC075 19/13 A3028 RMK CU1SC2SC2AC4 CU TR SLP256 DENSITY ALT 400FT
CYWH 212100Z 18006KT 15SM FEW040 BKN070 BKN160 14/11 A3028 RMK CU2AC3AC2 SLP256
KSUU 212058Z AUTO 01009KT 10SM CLR 38/04 A2986 RMK AO2 SLP118 T03780035 57010 $

